{"type": "FeatureCollection", "features": [ {"type": "Feature", "properties": {"norad_id": 66526, "name": "STARLINK-35932", "group": "last-30-days", "lat": -39.82900992239481, "lon": -49.40932790646827, "alt_km": 446.49004758051615, "timestamp": "2025-12-19T14:48:34.963033+00:00", "meta": {"OBJECT_NAME": "STARLINK-35932", "OBJECT_ID": "2025-265L", "EPOCH": "2025-12-19T08:00:01.999872", "MEAN_MOTION": 15.40683851, "ECCENTRICITY": 0.00012248, "INCLINATION": 43.0002, "RA_OF_ASC_NODE": 15.736, "ARG_OF_PERICENTER": 276.5562, "MEAN_ANOMALY": 238.0161, "EPHEMERIS_TYPE": 0, "CLASSIFICATION_TYPE": "U", "NORAD_CAT_ID": 66526, "ELEMENT_SET_NO": 999, "REV_AT_EPOCH": 594, "BSTAR": 0.00037150939, "MEAN_MOTION_DOT": 0.00015238, "MEAN_MOTION_DDOT": 0}, "tle": {"line1": "1 66526U 25265L   25353.33335648  .00015238  00000+0  37151-3 0  9996", "line2": "2 66526  43.0002  15.7360 0001224 276.5562 238.0161 15.40683851  5940"}}, "geometry": {"type": "Point", "coordinates": [-49.40932790646827, -39.82900992239481]}}, {"type": "Feature", "properties": {"norad_id": 66527, "name": "STARLINK-35935", "group": "last-30-days", "lat": 11.514324263414048, "lon": 26.518065551702843, "alt_km": 442.6269400110459, "timestamp": "2025-12-19T14:48:34.963045+00:00", "meta": {"OBJECT_NAME": "STARLINK-35935", "OBJECT_ID": "2025-265M", "EPOCH": "2025-12-19T08:00:01.999872", "MEAN_MOTION": 15.40655572, "ECCENTRICITY": 0.00011298, "INCLINATION": 43.0005, "RA_OF_ASC_NODE": 15.5261, "ARG_OF_PERICENTER": 257.4953, "MEAN_ANOMALY": 344.1343, "EPHEMERIS_TYPE": 0, "CLASSIFICATION_TYPE": "U", "NORAD_CAT_ID": 66527, "ELEMENT_SET_NO": 999, "REV_AT_EPOCH": 605, "BSTAR": 0.0008284342, "MEAN_MOTION_DOT": 0.00034407, "MEAN_MOTION_DDOT": 0}, "tle": {"line1": "1 66527U 25265M   25353.33335648  .00034407  00000+0  82843-3 0  9994", "line2": "2 66527  43.0005  15.5261 0001129 257.4953 344.1343 15.40655572  6051"}}, "geometry": {"type": "Point", "coordinates": [26.518065551702843, 11.514324263414048]}}, {"type": "Feature", "properties": {"norad_id": 66528, "name": "STARLINK-35928", "group": "last-30-days", "lat": 41.40433793081973, "lon": 84.8778413648037, "alt_km": 408.9379270852305, "timestamp": "2025-12-19T14:48:34.963055+00:00", "meta": {"OBJECT_NAME": "STARLINK-35928", "OBJECT_ID": "2025-265N", "EPOCH": "2025-12-18T10:39:29.722464", "MEAN_MOTION": 15.50593981, "ECCENTRICITY": 0.00016336, "INCLINATION": 42.9983, "RA_OF_ASC_NODE": 20.6041, "ARG_OF_PERICENTER": 271.028, "MEAN_ANOMALY": 89.0393, "EPHEMERIS_TYPE": 0, "CLASSIFICATION_TYPE": "U", "NORAD_CAT_ID": 66528, "ELEMENT_SET_NO": 999, "REV_AT_EPOCH": 464, "BSTAR": 0.0011684581, "MEAN_MOTION_DOT": 0.00068849, "MEAN_MOTION_DDOT": 0}, "tle": {"line1": "1 66528U 25265N   25352.44409401  .00068849  00000+0  11685-2 0  9997", "line2": "2 66528  42.9983  20.6041 0001633 271.0280  89.0393 15.50593981  4642"}}, "geometry": {"type": "Point", "coordinates": [84.8778413648037, 41.40433793081973]}}, {"type": "Feature", "properties": {"norad_id": 66529, "name": "STARLINK-35933", "group": "last-30-days", "lat": 9.57562613483228, "lon": -176.03036759786545, "alt_km": 441.9463861440645, "timestamp": "2025-12-19T14:48:34.963066+00:00", "meta": {"OBJECT_NAME": "STARLINK-35933", "OBJECT_ID": "2025-265P", "EPOCH": "2025-12-19T03:12:09.832896", "MEAN_MOTION": 15.40747143, "ECCENTRICITY": 0.00014986, "INCLINATION": 43.0014, "RA_OF_ASC_NODE": 17.1871, "ARG_OF_PERICENTER": 237.5668, "MEAN_ANOMALY": 122.5043, "EPHEMERIS_TYPE": 0, "CLASSIFICATION_TYPE": "U", "NORAD_CAT_ID": 66529, "ELEMENT_SET_NO": 999, "REV_AT_EPOCH": 474, "BSTAR": 0.0011365327, "MEAN_MOTION_DOT": 0.00047543, "MEAN_MOTION_DDOT": 0}, "tle": {"line1": "1 66529U 25265P   25353.13344714  .00047543  00000+0  11365-2 0  9993", "line2": "2 66529  43.0014  17.1871 0001498 237.5668 122.5043 15.40747143  4744"}}, "geometry": {"type": "Point", "coordinates": [-176.03036759786545, 9.57562613483228]}}, {"type": "Feature", "properties": {"norad_id": 66530, "name": "STARLINK-35961", "group": "last-30-days", "lat": -7.278185113177651, "lon": -157.78456461850047, "alt_km": 444.30704191989116, "timestamp": "2025-12-19T14:48:34.963077+00:00", "meta": {"OBJECT_NAME": "STARLINK-35961", "OBJECT_ID": "2025-265Q", "EPOCH": "2025-12-19T03:05:42.747936", "MEAN_MOTION": 15.40725976, "ECCENTRICITY": 0.00018769, "INCLINATION": 43.0007, "RA_OF_ASC_NODE": 17.1517, "ARG_OF_PERICENTER": 268.3399, "MEAN_ANOMALY": 91.7243, "EPHEMERIS_TYPE": 0, "CLASSIFICATION_TYPE": "U", "NORAD_CAT_ID": 66530, "ELEMENT_SET_NO": 999, "REV_AT_EPOCH": 474, "BSTAR": 0.0010481688, "MEAN_MOTION_DOT": 0.00043771, "MEAN_MOTION_DDOT": 0}, "tle": {"line1": "1 66530U 25265Q   25353.12896699  .00043771  00000+0  10482-2 0  9996", "line2": "2 66530  43.0007  17.1517 0001876 268.3399  91.7243 15.40725976  4747"}}, "geometry": {"type": "Point", "coordinates": [-157.78456461850047, -7.278185113177651]}}, {"type": "Feature", "properties": {"norad_id": 66531, "name": "STARLINK-35960", "group": "last-30-days", "lat": -23.34414398698328, "lon": -138.13265023475392, "alt_km": 445.3885434423655, "timestamp": "2025-12-19T14:48:34.963088+00:00", "meta": {"OBJECT_NAME": "STARLINK-35960", "OBJECT_ID": "2025-265R", "EPOCH": "2025-12-19T06:05:57.992352", "MEAN_MOTION": 15.40704705, "ECCENTRICITY": 0.00013468, "INCLINATION": 43.001, "RA_OF_ASC_NODE": 16.3702, "ARG_OF_PERICENTER": 241.5227, "MEAN_ANOMALY": 118.5494, "EPHEMERIS_TYPE": 0, "CLASSIFICATION_TYPE": "U", "NORAD_CAT_ID": 66531, "ELEMENT_SET_NO": 999, "REV_AT_EPOCH": 476, "BSTAR": 0.00072760697, "MEAN_MOTION_DOT": 0.00030215, "MEAN_MOTION_DDOT": 0}, "tle": {"line1": "1 66531U 25265R   25353.25414343  .00030215  00000+0  72761-3 0  9991", "line2": "2 66531  43.0010  16.3702 0001346 241.5227 118.5494 15.40704705  4769"}}, "geometry": {"type": "Point", "coordinates": [-138.13265023475392, -23.34414398698328]}}, {"type": "Feature", "properties": {"norad_id": 66532, "name": "STARLINK-35914", "group": "last-30-days", "lat": -36.487037401024565, "lon": -113.24128017709963, "alt_km": 446.18898277046173, "timestamp": "2025-12-19T14:48:34.963100+00:00", "meta": {"OBJECT_NAME": "STARLINK-35914", "OBJECT_ID": "2025-265S", "EPOCH": "2025-12-19T02:52:46.912224", "MEAN_MOTION": 15.40813961, "ECCENTRICITY": 8.304e-05, "INCLINATION": 42.9965, "RA_OF_ASC_NODE": 17.083, "ARG_OF_PERICENTER": 274.4096, "MEAN_ANOMALY": 85.6666, "EPHEMERIS_TYPE": 0, "CLASSIFICATION_TYPE": "U", "NORAD_CAT_ID": 66532, "ELEMENT_SET_NO": 999, "REV_AT_EPOCH": 474, "BSTAR": 0.0011840305, "MEAN_MOTION_DOT": 0.00049667, "MEAN_MOTION_DDOT": 0}, "tle": {"line1": "1 66532U 25265S   25353.11998741  .00049667  00000+0  11840-2 0  9997", "line2": "2 66532  42.9965  17.0830 0000830 274.4096  85.6666 15.40813961  4741"}}, "geometry": {"type": "Point", "coordinates": [-113.24128017709963, -36.487037401024565]}}, {"type": "Feature", "properties": {"norad_id": 66533, "name": "STARLINK-35707", "group": "last-30-days", "lat": -42.51092801259695, "lon": -65.51283204922673, "alt_km": 446.6727056534746, "timestamp": "2025-12-19T14:48:34.963111+00:00", "meta": {"OBJECT_NAME": "STARLINK-35707", "OBJECT_ID": "2025-265T", "EPOCH": "2025-12-19T08:00:01.999872", "MEAN_MOTION": 15.4068214, "ECCENTRICITY": 0.00011474, "INCLINATION": 43.0004, "RA_OF_ASC_NODE": 15.7649, "ARG_OF_PERICENTER": 260.9564, "MEAN_ANOMALY": 241.1825, "EPHEMERIS_TYPE": 0, "CLASSIFICATION_TYPE": "U", "NORAD_CAT_ID": 66533, "ELEMENT_SET_NO": 999, "REV_AT_EPOCH": 605, "BSTAR": 0.00033831357, "MEAN_MOTION_DOT": 0.00013846, "MEAN_MOTION_DDOT": 0}, "tle": {"line1": "1 66533U 25265T   25353.33335648  .00013846  00000+0  33831-3 0  9998", "line2": "2 66533  43.0004  15.7649 0001147 260.9564 241.1825 15.40682140  6058"}}, "geometry": {"type": "Point", "coordinates": [-65.51283204922673, -42.51092801259695]}}, {"type": "Feature", "properties": {"norad_id": 66534, "name": "STARLINK-35976", "group": "last-30-days", "lat": -21.598048354576722, "lon": -11.13081762637273, "alt_km": 445.7678593700912, "timestamp": "2025-12-19T14:48:34.963122+00:00", "meta": {"OBJECT_NAME": "STARLINK-35976", "OBJECT_ID": "2025-265U", "EPOCH": "2025-12-19T08:00:01.999872", "MEAN_MOTION": 15.40681618, "ECCENTRICITY": 0.00011464, "INCLINATION": 43, "RA_OF_ASC_NODE": 15.645, "ARG_OF_PERICENTER": 265.4671, "MEAN_ANOMALY": 286.4311, "EPHEMERIS_TYPE": 0, "CLASSIFICATION_TYPE": "U", "NORAD_CAT_ID": 66534, "ELEMENT_SET_NO": 999, "REV_AT_EPOCH": 605, "BSTAR": 0.00042427158, "MEAN_MOTION_DOT": 0.00017449, "MEAN_MOTION_DDOT": 0}, "tle": {"line1": "1 66534U 25265U   25353.33335648  .00017449  00000+0  42427-3 0  9993", "line2": "2 66534  43.0000  15.6450 0001146 265.4671 286.4311 15.40681618  6053"}}, "geometry": {"type": "Point", "coordinates": [-11.13081762637273, -21.598048354576722]}}, {"type": "Feature", "properties": {"norad_id": 66535, "name": "STARLINK-35514", "group": "last-30-days", "lat": -13.666196944593775, "lon": -1.1452986832365837, "alt_km": 444.85857439478605, "timestamp": "2025-12-19T14:48:34.963133+00:00", "meta": {"OBJECT_NAME": "STARLINK-35514", "OBJECT_ID": "2025-265V", "EPOCH": "2025-12-19T08:00:01.999872", "MEAN_MOTION": 15.40698222, "ECCENTRICITY": 0.00013439, "INCLINATION": 43, "RA_OF_ASC_NODE": 15.6153, "ARG_OF_PERICENTER": 282.406, "MEAN_ANOMALY": 281.8826, "EPHEMERIS_TYPE": 0, "CLASSIFICATION_TYPE": "U", "NORAD_CAT_ID": 66535, "ELEMENT_SET_NO": 999, "REV_AT_EPOCH": 605, "BSTAR": 0.00046898502, "MEAN_MOTION_DOT": 0.00019335, "MEAN_MOTION_DDOT": 0}, "tle": {"line1": "1 66535U 25265V   25353.33335648  .00019335  00000+0  46899-3 0  9997", "line2": "2 66535  43.0000  15.6153 0001343 282.4060 281.8826 15.40698222  6053"}}, "geometry": {"type": "Point", "coordinates": [-1.1452986832365837, -13.666196944593775]}}]}